COMMENT,ORIGINATOR,NORAD_CAT_ID,OBJECT_NAME,OBJECT_TYPE,CLASSIFICATION_TYPE,INTLDES,EPOCH,EPOCH_MICROSECONDS,MEAN_MOTION,ECCENTRICITY,INCLINATION,RA_OF_ASC_NODE,ARG_OF_PERICENTER,MEAN_ANOMALY,EPHEMERIS_TYPE,ELEMENT_SET_NO,REV_AT_EPOCH,BSTAR,MEAN_MOTION_DOT,MEAN_MOTION_DDOT,FILE,TLE_LINE0,TLE_LINE1,TLE_LINE2,OBJECT_ID,OBJECT_NUMBER,SEMIMAJOR_AXIS,PERIOD,APOGEE,PERIGEE
"GENERATED VIA SPACETRACK.ORG API","JSPOC","40069","METEOR M2","PAYLOAD","U","14037A","2016-01-14 10:53:24","758592","14.20623962","0.000465","98.7304","71.8335","276.6938","83.371","0","999","7876","1.6856e-05","-8e-08","0","1980221","0 METEOR M2","1 40069U 14037A   16014.45375878 -.00000008  00000-0  16856-4 0  9992","2 40069  98.7304  71.8335 0004650 276.6938  83.3710 14.20623962 78760","2014-037A","40069","7201.380","101.363","826.594","819.896"
"GENERATED VIA SPACETRACK.ORG API","JSPOC","39490","COSMOS 2493 (SKRL 756)","PAYLOAD","U","13078A","2016-01-14 10:53:31","86528","14.87628599","0.0016854","82.4208","318.8936","318.1112","41.8822","0","999","11106","0.00011354","1.058e-05","0","1980235","0 COSMOS 2493 (SKRL 756)","1 39490U 13078A   16014.45383202  .00001058  00000-0  11354-3 0  9994","2 39490  82.4208 318.8936 0016854 318.1112  41.8822 14.87628599111063","2013-078A","39490","6983.484","96.798","617.119","593.579"
"GENERATED VIA SPACETRACK.ORG API","JSPOC","28911","INSAT 4A","PAYLOAD","U","05049A","2016-01-14 10:54:13","316256","1.00270999","0.0007367","0.0211","97.4529","182.7802","79.6709","0","999","3692","0","-1.69e-06","0","1980681","0 INSAT 4A","1 28911U 05049A   16014.45432079 -.00000169  00000-0  00000+0 0  9991","2 28911   0.0211  97.4529 0007367 182.7802  79.6709  1.00270999 36929","2005-049A","28911","42164.952","1436.108","35817.880","35755.754"
"GENERATED VIA SPACETRACK.ORG API","JSPOC","21577","TUBSAT A","PAYLOAD","U","91050D","2016-01-14 10:54:14","481792","14.39312993","0.0007322","98.7758","10.2058","93.9539","266.2485","0","999","28564","3.2674e-05","5.5e-07","0","1980162","0 TUBSAT A","1 21577U 91050D   16014.45433428  .00000055  00000-0  32674-4 0  9998","2 21577  98.7758  10.2058 0007322  93.9539 266.2485 14.39312993285648","1991-050D","21577","7138.906","100.047","765.998","755.544"
"GENERATED VIA SPACETRACK.ORG API","JSPOC","40358","COSMOS 2502","PAYLOAD","U","14086A","2016-01-14 10:54:19","91232","13.96674742","0.000557","67.1502","268.0533","260.4241","99.6221","0","999","5383","-6.4555e-05","-1.65e-06","0","1980142","0 COSMOS 2502","1 40358U 14086A   16014.45438763 -.00000165  00000-0 -64555-4 0  9994","2 40358  67.1502 268.0533 0005570 260.4241  99.6221 13.96674742 53833","2014-086A","40358","7283.469","103.102","909.391","901.277"
"GENERATED VIA SPACETRACK.ORG API","JSPOC","6320","SL-8 R/B","ROCKET BODY","U","72102B","2016-01-14 10:54:22","122144","12.769238","0.0025139","74.0158","110.313","246.8314","192.1203","0","999","749","9.0173e-05","2e-08","0","1980160","0 SL-8 R/B","1 06320U 72102B   16014.45442271  .00000002  00000-0  90173-4 0  9990","2 06320  74.0158 110.3130 0025139 246.8314 192.1203 12.76923800  7491","1972-102B","6320","7732.000","112.771","1373.302","1334.427"
"GENERATED VIA SPACETRACK.ORG API","JSPOC","38779","GSAT 10","PAYLOAD","U","12051B","2016-01-14 10:54:22","580928","1.0027104","0.0002318","0.0676","258.6311","3.6737","97.6561","0","999","1194","0","-1.7e-06","0","1980707","0 GSAT 10","1 38779U 12051B   16014.45442802 -.00000170 +00000-0 +00000-0 0  9993","2 38779 000.0676 258.6311 0002318 003.6737 097.6561 01.00271040011945","2012-051B","38779","42164.940","1436.107","35796.579","35777.031"
"GENERATED VIA SPACETRACK.ORG API","JSPOC","27056","COSMOS 2385","PAYLOAD","U","01058B","2016-01-14 10:54:39","226752","12.60502851","0.0006149","82.5365","134.2008","166.4091","193.717","0","999","64633","-0.00014467","-1.5e-07","0","1980140","0 COSMOS 2385","1 27056U 01058B   16014.45462068 -.00000015  00000-0 -14467-3 0  9994","2 27056  82.5365 134.2008 0006149 166.4091 193.7170 12.60502851646336","2001-058B","27056","7799.006","114.240","1425.667","1416.075"
"GENERATED VIA SPACETRACK.ORG API","JSPOC","40961","JILIN 1","PAYLOAD","U","15057D","2016-01-14 10:54:46","671840","14.73219312","0.0017393","98.0311","91.3389","296.7607","63.1828","0","999","1462","6.7637e-05","3.86e-06","0","1980163","0 JILIN 1","1 40961U 15057D   16014.45470685  .00000386  00000-0  67637-4 0  9999","2 40961  98.0311  91.3389 0017393 296.7607  63.1828 14.73219312 14621","2015-057D","40961","7028.946","97.745","663.036","638.586"
"GENERATED VIA SPACETRACK.ORG API","JSPOC","32289","YAOGAN 3","PAYLOAD","U","07055A","2016-01-14 10:55:24","364704","14.80644356","0.0001393","97.9774","12.3651","101.808","258.3285","0","999","44182","4.3021e-05","2.78e-06","0","1980179","0 YAOGAN 3","1 32289U 07055A   16014.45514311  .00000278  00000-0  43021-4 0  9998","2 32289  97.9774  12.3651 0001393 101.8080 258.3285 14.80644356441824","2007-055A","32289","7005.427","97.254","628.268","626.317"
"GENERATED VIA SPACETRACK.ORG API","JSPOC","20303","DELTA 2 R/B(1)","ROCKET BODY","U","89085B","2016-01-14 10:55:28","354656","15.1949471","0.0117835","35.6326","37.4959","268.1424","90.5802","0","999","42132","0.00030324","7.898e-05","0","1980137","0 DELTA 2 R/B(1)","1 20303U 89085B   16014.45518929  .00007898  00000-0  30324-3 0  9990","2 20303  35.6326  37.4959 0117835 268.1424  90.5802 15.19494710421321","1989-085B","20303","6885.503","94.768","588.503","426.233"
"GENERATED VIA SPACETRACK.ORG API","JSPOC","3522","THOR BURNER 2 R/B","ROCKET BODY","U","68092B","2016-01-14 10:55:46","318080","14.29346196","0.0029275","98.2989","178.5979","198.4478","161.5645","0","999","45670","5.553e-05","1.01e-06","0","1980178","0 THOR BURNER 2 R/B","1 03522U 68092B   16014.45539720  .00000101  00000-0  55530-4 0  9998","2 03522  98.2989 178.5979 0029275 198.4478 161.5645 14.29346196456706","1968-092B","3522","7172.054","100.745","814.915","772.922"
"GENERATED VIA SPACETRACK.ORG API","JSPOC","39419","DUBAISAT 2","PAYLOAD","U","13066D","2016-01-14 10:56:23","637696","14.93080627","0.0013558","97.7334","91.5359","193.8186","166.2644","0","999","11693","0.00013269","1.327e-05","0","1980195","0 DUBAISAT 2","1 39419U 13066D   16014.45582914  .00001327  00000-0  13269-3 0  9999","2 39419  97.7334  91.5359 0013558 193.8186 166.2644 14.93080627116930","2013-066D","39419","6966.473","96.444","597.783","578.893"
"GENERATED VIA SPACETRACK.ORG API","JSPOC","2807","OPS 7218 (TRANSIT 16)","PAYLOAD","U","67048A","2016-01-14 10:56:35","425248","13.50100311","0.0021813","89.6456","123.9164","138.1568","271.0922","0","999","39469","0.00013147","9.4e-07","0","1980185","0 OPS 7218 (TRANSIT 16)","1 02807U 67048A   16014.45596557  .00000094  00000-0  13147-3 0  9992","2 02807  89.6456 123.9164 0021813 138.1568 271.0922 13.50100311394699","1967-048A","2807","7450.026","106.658","1088.142","1055.640"
"GENERATED VIA SPACETRACK.ORG API","JSPOC","22287","SL-14 R/B","ROCKET BODY","U","92094B","2016-01-14 10:56:50","677440","14.77962524","0.0023709","82.523","196.6623","222.87","137.0665","0","999","24178","2.2128e-05","1.83e-06","0","1980178","0 SL-14 R/B","1 22287U 92094B   16014.45614210  .00000183  00000-0  22128-4 0  9991","2 22287  82.5230 196.6623 0023709 222.8700 137.0665 14.77962524241785","1992-094B","22287","7013.899","97.431","652.394","619.135"
"GENERATED VIA SPACETRACK.ORG API","JSPOC","37253","FALCON 9 R/B","ROCKET BODY","U","10066K","2016-01-14 10:57:08","11872","6.85961357","0.4293235","34.5072","43.4156","160.5067","222.9615","0","999","12481","0.00045241","4.113e-05","0","1980145","0 FALCON 9 R/B","1 37253U 10066K   16014.45634273  .00004113  00000-0  45241-3 0  9997","2 37253  34.5072  43.4156 4293235 160.5067 222.9615  6.85961357124812","2010-066K","37253","11700.436","209.924","10345.574","299.029"
"GENERATED VIA SPACETRACK.ORG API","JSPOC","19073","COSMOS 1940","PAYLOAD","U","88034A","2016-01-14 10:57:14","947200","1.00653704","0.0022235","14.7834","0.7984","193.242","253.4558","0","999","8304","0","1.1e-07","0","1980175","0 COSMOS 1940","1 19073U 88034A   16014.45642300  .00000011  00000-0  00000+0 0  9990","2 19073  14.7834   0.7984 0022235 193.2420 253.4558  1.00653704 83045","1988-034A","19073","42058.004","1430.647","35773.385","35586.353"
"GENERATED VIA SPACETRACK.ORG API","JSPOC","11142","ATLAS F R/B","ROCKET BODY","U","78112B","2016-01-14 10:57:16","123104","5.34599295","0.4926364","63.7573","182.1663","346.3872","30.5486","0","999","71226","-1.115e-05","1.8e-07","0","1980153","0 ATLAS F R/B","1 11142U 78112B   16014.45643661  .00000018  00000-0 -11150-4 0  9997","2 11142  63.7573 182.1663 4926364 346.3872  30.5486  5.34599295712261","1978-112B","11142","13816.018","269.360","14244.157","631.610"
"GENERATED VIA SPACETRACK.ORG API","JSPOC","13970","IUS R/B(2)","ROCKET BODY","U","83026C","2016-01-14 10:57:23","99904","1.32156729","0.1873072","1.8179","340.596","153.1595","351.9752","0","999","15823","0","-1.06e-06","0","1980139","0 IUS R/B(2)","1 13970U 83026C   16014.45651736 -.00000106  00000-0  00000+0 0  9995","2 13970   1.8179 340.5960 1873072 153.1595 351.9752  1.32156729158239","1983-026C","13970","35075.913","1089.615","35267.749","22127.807"
"GENERATED VIA SPACETRACK.ORG API","JSPOC","14595","SL-12 R/B(2)","ROCKET BODY","U","83127F","2016-01-14 10:57:28","708128","2.13937806","0.0065907","65.6739","89.8466","198.3029","232.5765","0","999","19004","0","-6e-08","0","1980140","0 SL-12 R/B(2)","1 14595U 83127F   16014.45658227 -.00000006  00000-0  00000+0 0  9992","2 14595  65.6739  89.8466 0065907 198.3029 232.5765  2.13937806190045","1983-127F","14595","25441.545","673.092","19231.087","18895.732"
